0 FENGYUN 1C DEB
1 36153U 99025DSA 13279.26807934  .00001603  00000-0  76336-3 0  2175
2 36153 098.8932 302.2503 0051767 097.1018 326.5613 14.20078221236415
0 FENGYUN 1C DEB
1 36153U 99025DSA 13283.28320722  .00001929  00000-0  91375-3 0  2189
2 36153 098.8924 306.2845 0051542 085.7773 332.9431 14.20097511236985
0 FENGYUN 1C DEB
1 36153U 99025DSA 13287.29927262  .00002140  00000-0  10116-2 0  2196
2 36153 098.8913 310.3205 0051194 074.4696 344.3602 14.20112204237559
0 FENGYUN 1C DEB
1 36153U 99025DSA 13291.54511858  .00002407  00000-0  11346-2 0  2203
2 36153 098.8914 314.5870 0050785 062.1978 091.1145 14.20135567238159
